[{"OBJECT_NAME":"STARLINK-4598","OBJECT_ID":"2022-104AU","EPOCH":"2026-03-09T22:49:01.725024","MEAN_MOTION":15.08841252,"ECCENTRICITY":0.00014012,"INCLINATION":53.2164,"RA_OF_ASC_NODE":223.023,"ARG_OF_PERICENTER":64.1882,"MEAN_ANOMALY":295.9255,"EPHEMERIS_TYPE":0,"CLASSIFICATION_TYPE":"U","NORAD_CAT_ID":53630,"ELEMENT_SET_NO":999,"REV_AT_EPOCH":19610,"BSTAR":1.9739889e-5,"MEAN_MOTION_DOT":2.6e-7,"MEAN_MOTION_DDOT":0},{"OBJECT_NAME":"LEMUR-2-SIERRINI","OBJECT_ID":"2024-149DR","EPOCH":"2026-03-09T19:24:50.445216","MEAN_MOTION":15.08682764,"ECCENTRICITY":0.00065795,"INCLINATION":97.6873,"RA_OF_ASC_NODE":151.1225,"ARG_OF_PERICENTER":147.8458,"MEAN_ANOMALY":212.3173,"EPHEMERIS_TYPE":0,"CLASSIFICATION_TYPE":"U","NORAD_CAT_ID":60579,"ELEMENT_SET_NO":999,"REV_AT_EPOCH":8546,"BSTAR":0.00092040134,"MEAN_MOTION_DOT":0.00014386,"MEAN_MOTION_DDOT":0}]
